STARLINK-34584          
1 64697U 25142B   25198.73407563 -.00169051  00000+0 -23787-2 0  9998
2 64697  70.0003 197.0055 0004040 258.7784 101.2952 15.57006990  4039
STARLINK-34535          
1 64698U 25142C   25198.73373596 -.00176104  00000+0 -24815-2 0  9997
2 64698  70.0003 197.0037 0004068 258.2305 101.8428 15.56992620  3984
STARLINK-34600          
1 64699U 25142D   25198.73339378 -.00177238  00000+0 -24978-2 0  9997
2 64699  70.0003 197.0025 0004203 260.9605  99.1109 15.56992330  4036
STARLINK-34560          
1 64700U 25142E   25198.73306007 -.00260494  00000+0 -37243-2 0  9999
2 64700  70.0003 197.0009 0004316 275.4687  84.6009 15.56887944  3982
STARLINK-34576          
1 64701U 25142F   25198.73271880 -.00165840  00000+0 -23384-2 0  9990
2 64701  70.0005 196.9992 0003115 267.0558  93.0275 15.56945252  3980
STARLINK-34322          
1 64702U 25142G   25198.73236882 -.00173444  00000+0 -24456-2 0  9994
2 64702  70.0005 196.9983 0004938 274.2371  85.8254 15.56959941  4198
STARLINK-34470          
1 64703U 25142H   25198.73202439 -.00167827  00000+0 -23612-2 0  9997
2 64703  70.0007 196.9983 0004066 251.3855 108.6892 15.57005714  3985
STARLINK-34405          
1 64704U 25142J   25198.73168304 -.00181320  00000+0 -25562-2 0  9990
2 64704  70.0005 196.9963 0004191 258.0217 102.0503 15.56997308  4039
STARLINK-34406          
1 64705U 25142K   25198.73134110 -.00029282  00000+0 -40507-3 0  9994
2 64705  70.0007 196.9941 0005031 269.7257  90.3356 15.56859620  4146
STARLINK-34559          
1 64706U 25142L   25198.73099616 -.00128296  00000+0 -17947-2 0  9992
2 64706  70.0006 196.9929 0003069 269.7427  90.3410 15.57026239  4032
STARLINK-34316          
1 64707U 25142M   25198.73065639 -.00183106  00000+0 -25815-2 0  9995
2 64707  70.0006 196.9915 0004269 258.4889 101.5821 15.57001555  4190
STARLINK-34563          
1 64708U 25142N   25198.73031432 -.00181602  00000+0 -25597-2 0  9996
2 64708  70.0007 196.9905 0004419 261.2999  98.7690 15.57001590  3876
STARLINK-34499          
1 64709U 25142P   25198.72997467 -.00180008  00000+0 -25400-2 0  9997
2 64709  70.0007 196.9887 0004819 274.4257  85.6382 15.56963959  3871
STARLINK-34447          
1 64710U 25142Q   25198.72963926 -.00171409  00000+0 -24177-2 0  9997
2 64710  70.0006 196.9872 0003368 267.1146  92.9657 15.56954565  4195
STARLINK-34312          
1 64711U 25142R   25198.72928801 -.00178054  00000+0 -25082-2 0  9990
2 64711  70.0006 196.9859 0004077 252.0281 108.0464 15.57007651  4193
STARLINK-34515          
1 64712U 25142S   25198.72894548 -.00177366  00000+0 -24978-2 0  9999
2 64712  70.0007 196.9845 0004184 254.0680 106.0048 15.57012300  3871
STARLINK-34583          
1 64713U 25142T   25198.72860866 -.00176683  00000+0 -24922-2 0  9996
2 64713  70.0007 196.9831 0004308 272.6561  87.4135 15.56965677  3871
STARLINK-34574          
1 64714U 25142U   25198.72826711 -.00173174  00000+0 -24416-2 0  9998
2 64714  70.0007 196.9815 0004010 271.0632  89.0098 15.56967674  4030
STARLINK-34533          
1 64715U 25142V   25198.72791944 -.00176292  00000+0 -24821-2 0  9992
2 64715  70.0007 196.9803 0003986 254.1646 105.9104 15.57015980  3968
STARLINK-34548          
1 64716U 25142W   25198.72757597 -.00175310  00000+0 -24672-2 0  9993
2 64716  70.0006 196.9786 0004147 252.2605 107.8131 15.57023248  3981
STARLINK-34568          
1 64717U 25142X   25198.72724337 -.00163297  00000+0 -22992-2 0  9994
2 64717  70.0007 196.9780 0003309 268.0953  91.9857 15.56974397  4031
STARLINK-34546          
1 64718U 25142Y   25198.72689271 -.00178703  00000+0 -25164-2 0  9994
2 64718  70.0006 196.9767 0004102 255.3311 104.7423 15.57019847  4195
STARLINK-34577          
1 64719U 25142Z   25198.72621230 -.00184314  00000+0 -25989-2 0  9996
2 64719  70.0006 196.9738 0004033 255.2862 104.7880 15.57003492  4047
STARLINK-34572          
1 64720U 25142AA  25198.72655022 -.00176697  00000+0 -24872-2 0  9999
2 64720  70.0007 196.9755 0004306 255.1909 104.8803 15.57021781  4196
STARLINK-34558          
1 64721U 25142AB  25198.72587284 -.00159022  00000+0 -22366-2 0  9993
2 64721  70.0006 196.9721 0003254 267.5545  92.5271 15.56988683  3983
MTG-S1                  
1 64723U 25143A   25198.77084233 -.00000024  00000+0  00000+0 0  9991
2 64723   1.0031 303.4507 0000388  65.1138 201.2830  1.00270475   141
STARLINK-34393          
1 64724U 25144A   25198.66670139 -.01393726  00000+0 -10563-1 0  9990
2 64724  53.1582 196.7722 0000961  55.4133 234.9172 15.74523453  3673
STARLINK-34562          
1 64725U 25144B   25198.66670139 -.01356962  00000+0 -10258-1 0  9993
2 64725  53.1582 196.7679 0000972  63.8757 228.3720 15.74505811  3643
STARLINK-34557          
1 64726U 25144C   25198.66670139 -.01381047  00000+0 -10455-1 0  9995
2 64726  53.1581 196.7641 0000868  78.2781 215.8752 15.74524010  3663
STARLINK-34242          
1 64727U 25144D   25198.66670139 -.01339865  00000+0 -10118-1 0  9993
2 64727  53.1582 196.7602 0001339 107.2125 188.8753 15.74491233  3661
STARLINK-34239          
1 64728U 25144E   25198.66670139 -.01379002  00000+0 -10439-1 0  9997
2 64728  53.1583 196.7558 0001029 109.4557 188.5400 15.74519327  3663
STARLINK-34588          
1 64729U 25144F   25198.66670139 -.01357176  00000+0 -10258-1 0  9995
2 64729  53.1583 196.7520 0001024  98.9170 200.9905 15.74509347  3661
STARLINK-34606          
1 64730U 25144G   25198.66670139 -.01349017  00000+0 -10191-1 0  9998
2 64730  53.1584 196.7477 0001047  99.9041 201.9214 15.74504248  3667
STARLINK-34552          
1 64731U 25144H   25198.80361187  .00207075  00000+0  13803-2 0  9993
2 64731  53.1578 196.0635 0001144  14.1102 345.9950 15.74246158  3697
STARLINK-34596          
1 64732U 25144J   25198.80327612  .00253280  00000+0  16776-2 0  9990
2 64732  53.1579 196.0624 0000649  20.1974 339.9071 15.74251878  3692
STARLINK-34556          
1 64733U 25144K   25198.80293515  .00210346  00000+0  14012-2 0  9992
2 64733  53.1579 196.0597 0000514  16.2084 343.8952 15.74250492  3694
STARLINK-34591          
1 64734U 25144L   25198.66670139 -.01424894  00000+0 -10825-1 0  9993
2 64734  53.1584 196.7317 0000985  46.1591 263.3554 15.74533774  3641
STARLINK-34587          
1 64735U 25144M   25198.80225013  .00241877  00000+0  16011-2 0  9996
2 64735  53.1581 196.0542 0001426 128.2660 231.8489 15.74300879  3636
STARLINK-34130          
1 64736U 25144N   25198.80191348  .00185511  00000+0  12389-2 0  9996
2 64736  53.1581 196.0522 0000723  79.7064 280.4037 15.74270135  3698
STARLINK-34619          
1 64737U 25144P   25198.80158260  .00228865  00000+0  15207-2 0  9995
2 64737  53.1580 196.0494 0001219 118.2971 241.8172 15.74252841  3698
STARLINK-34597          
1 64738U 25144Q   25198.80124633  .00286286  00000+0  18866-2 0  9998
2 64738  53.1580 196.0481 0001180  40.6757 319.4351 15.74271839  3679
STARLINK-34471          
1 64739U 25144R   25198.66670139 -.01354183  00000+0 -10232-1 0  9993
2 64739  53.1582 196.7114 0000993  95.6147 223.4553 15.74510998  3609
STARLINK-34208          
1 64740U 25144S   25198.80056869  .00248687  00000+0  16471-2 0  9999
2 64740  53.1577 196.0424 0000829 109.5785 250.5324 15.74267066  3694
STARLINK-34205          
1 64741U 25144T   25198.80022818  .00218264  00000+0  14520-2 0  9998
2 64741  53.1579 196.0402 0001166 131.8383 228.2736 15.74257552  3698
STARLINK-34607          
1 64742U 25144U   25198.66670139 -.01345364  00000+0 -10158-1 0  9995
2 64742  53.1584 196.6991 0000994  87.0696 237.7481 15.74509372  3648
STARLINK-34236          
1 64743U 25144V   25198.66670139 -.01285363  00000+0 -96871-2 0  9995
2 64743  53.1584 196.6949 0001025  73.5860 253.2321 15.74428218  3668
STARLINK-34185          
1 64744U 25144W   25198.79921698  .00267153  00000+0  17673-2 0  9996
2 64744  53.1578 196.0332 0000676  75.5685 284.5410 15.74238986  3690
STARLINK-34581          
1 64745U 25144X   25198.79887760  .00252755  00000+0  16728-2 0  9990
2 64745  53.1579 196.0307 0000716  80.8717 279.2384 15.74271877  3691
STARLINK-34592          
1 64746U 25144Y   25198.79853923  .00254387  00000+0  16830-2 0  9992
2 64746  53.1579 196.0287 0000451  84.1295 275.9776 15.74274857  3692
STARLINK-34589          
1 64747U 25144Z   25198.79820318  .00269427  00000+0  17799-2 0  9991
2 64747  53.1578 196.0270 0001125 111.7967 248.3172 15.74264446  3693
STARLINK-34536          
1 64748U 25144AA  25198.66670139 -.01342154  00000+0 -10133-1 0  9998
2 64748  53.1586 196.6750 0000888  87.6659 248.6570 15.74505514  3662
STARLINK-34595          
1 64749U 25144AB  25198.79718940  .00245704  00000+0  16284-2 0  9990
2 64749  53.1580 196.0196 0000605  87.8974 272.2115 15.74260694  3692
STARLINK-34531          
1 64750U 25144AC  25198.79752550  .00228570  00000+0  15176-2 0  9998
2 64750  53.1576 196.0219 0001002 105.7720 254.3410 15.74271046  3698
PROGRESS-MS 31          
1 64751U 25146A   25198.43039083  .00007747  00000+0  14395-3 0  9995
2 64751  51.6338 157.1576 0002273  88.8960 271.2290 15.49923845  1932
SHIYAN-28B 01           
1 64753U 25145A   25198.76574909  .00000567  00000+0  52364-4 0  9995
2 64753  11.0003 345.7453 0003300 229.5556 130.4384 14.29198237  1991
CZ-4C R/B               
1 64754U 25145B   25198.70306603  .00000965  00000+0  82719-4 0  9993
2 64754  10.9869 341.9084 0122063 186.2673 173.6021 14.56354200  1974
STARLINK-33965          
1 64755U 25147A   25198.69091270 -.00651094  00000+0 -36226-2 0  9992
2 64755  53.1563 261.3524 0000553 153.6818 206.4233 15.80443355  2718
STARLINK-34371          
1 64756U 25147B   25198.75386581 -.00561585  00000+0 -31134-2 0  9990
2 64756  53.1563 261.0337 0001761  30.1457 329.9667 15.80286684  2631
STARLINK-34401          
1 64757U 25147C   25198.69021540 -.00626107  00000+0 -34647-2 0  9999
2 64757  53.1565 261.3476 0002121 164.7685 195.3401 15.80486494  2563
